OBJECT_NAME,OBJECT_ID,EPOCH,MEAN_MOTION,ECCENTRICITY,INCLINATION,RA_OF_ASC_NODE,ARG_OF_PERICENTER,MEAN_ANOMALY,EPHEMERIS_TYPE,CLASSIFICATION_TYPE,NORAD_CAT_ID,ELEMENT_SET_NO,REV_AT_EPOCH,BSTAR,MEAN_MOTION_DOT,MEAN_MOTION_DDOT
STARLINK-35854,2026-053H,2026-05-31T15:24:14.449824,15.33460011,.00028981,97.2838,27.0361,101.6972,258.4596,0,U,68214,999,1291,.77959325E-3,.25191E-3,0
STARLINK-36272,2026-053J,2026-06-01T02:57:14.904288,15.33456240,.00006895,97.2862,27.4571,39.4572,320.6720,0,U,68215,999,1298,.67343259E-3,.21736E-3,0
STARLINK-37014,2026-053K,2026-06-01T02:53:20.474304,15.33448475,.00013884,97.2863,27.4635,51.4685,308.6682,0,U,68216,999,1300,.65171852E-3,.21026E-3,0
STARLINK-37011,2026-053L,2026-06-01T02:49:25.371264,15.33460579,.00007944,97.2860,27.4688,88.1643,271.9691,0,U,68217,999,1300,.87960659E-3,.28443E-3,0
STARLINK-37108,2026-053M,2026-06-01T07:27:24.869664,15.33449007,.00023162,97.2854,27.6665,92.8291,267.3217,0,U,68218,999,1303,.50069459E-3,.16127E-3,0
STARLINK-37106,2026-053N,2026-06-01T02:41:35.527200,15.33453014,.00018017,97.2857,27.4776,83.0210,277.1237,0,U,68219,999,1300,.64076916E-3,.20674E-3,0
STARLINK-37030,2026-053P,2026-06-01T02:33:45.549216,15.33471344,.00012896,97.2845,27.4814,98.5878,261.5511,0,U,68220,999,1300,.93650112E-3,.30305E-3,0
STARLINK-37012,2026-053Q,2026-06-01T02:37:41.194848,15.33463622,.00015796,97.2855,27.4798,90.1537,269.9887,0,U,68221,999,1300,.65344081E-3,.21092E-3,0
STARLINK-37110,2026-053R,2026-06-01T07:11:45.127968,15.33436945,.00017316,97.2853,27.6803,88.0483,272.0958,0,U,68222,999,1303,.32827654E-3,.10535E-3,0
STARLINK-37025,2026-053S,2026-06-01T02:25:55.626528,15.33450302,.00011015,97.2894,27.4930,88.5595,271.5774,0,U,68223,999,1300,.56413562E-3,.18184E-3,0
STARLINK-36960,2026-053U,2026-05-31T15:20:19.861728,15.33439640,.00011697,97.2850,27.0495,89.9929,270.1448,0,U,68225,999,1291,.9870416E-3,.3192E-3,0
STARLINK-37038,2026-053V,2026-06-01T02:10:15.953088,15.33458401,.00009045,97.2865,27.5068,89.2645,270.8701,0,U,68226,999,1298,.70514962E-3,.22768E-3,0
STARLINK-37083,2026-053W,2026-05-31T15:16:24.609216,15.33443872,.00012795,97.2861,27.0537,96.9729,263.1659,0,U,68227,999,1290,.99210809E-3,.32089E-3,0
STARLINK-37050,2026-053X,2026-05-31T15:08:35.116800,15.33452285,.00028447,97.2833,27.0585,105.9119,254.2437,0,U,68228,999,1291,.73536002E-3,.23747E-3,0
STARLINK-37081,2026-053Y,2026-06-01T02:34:13.263744,15.49207701,.00009986,97.2860,30.2273,81.5534,278.5830,0,U,68229,999,1318,.10229172E-2,.55976E-3,0
STARLINK-37100,2026-053Z,2026-06-01T02:02:26.433888,15.33449988,.00007952,97.2858,27.5146,90.1183,270.0151,0,U,68230,999,1300,.69797993E-3,.22529E-3,0
STARLINK-37104,2026-053AA,2026-06-01T01:58:31.259136,15.33453192,.00009557,97.2868,27.5178,53.0439,307.0891,0,U,68231,999,1300,.66348077E-3,.21411E-3,0
STARLINK-37027,2026-054A,2026-05-31T17:40:45.045408,15.34412706,.00009174,53.1580,264.1806,81.4943,278.6163,0,U,68232,999,1180,.63761287E-3,.21236E-3,0
STARLINK-37132,2026-054B,2026-05-31T15:24:25.713792,15.49322515,.0002166,53.1592,266.4915,37.1613,322.9545,0,U,68233,999,1176,.14894302E-2,.83318E-3,0
STARLINK-37101,2026-054C,2026-06-01T06:00:02.000160,15.48194060,.00016063,53.1592,266.3245,109.0470,116.7031,0,U,68234,999,590,.27965843E-1,.1675091E-1,0
STARLINK-36963,2026-054D,2026-06-01T06:00:02.000160,15.34342814,.00009551,53.1598,262.1270,77.2450,65.9151,0,U,68235,999,595,.15490697E-2,.52231E-3,0
STARLINK-37127,2026-054E,2026-06-01T07:29:45.750048,15.42162500,.00008602,53.1600,265.7363,92.5917,267.5187,0,U,68236,999,1183,.90684462E-3,.39256E-3,0
STARLINK-37095,2026-054F,2026-06-01T06:53:33.345600,15.34391355,.00012238,53.1605,261.9309,98.5193,261.5949,0,U,68237,999,1188,.46674831E-3,.15422E-3,0
STARLINK-37097,2026-054G,2026-05-31T14:33:52.293600,15.35406179,.00010201,53.1597,264.7954,90.2091,269.9029,0,U,68238,999,1178,.13721489E-2,.47796E-3,0
STARLINK-37096,2026-054H,2026-05-31T14:42:04.340736,15.35414644,.00005307,53.1596,264.8320,98.2895,261.8168,0,U,68239,999,1178,.44873919E-3,.15312E-3,0
STARLINK-37092,2026-054J,2026-05-31T15:32:52.331424,15.42181380,.00009909,53.1597,268.6902,94.7252,265.3867,0,U,68240,999,1173,.80502258E-3,.34804E-3,0
STARLINK-37094,2026-054K,2026-06-01T07:40:19.890624,15.30200497,.00013129,53.1611,268.6235,81.2394,278.8756,0,U,68241,999,1179,.75742844E-3,.22141E-3,0
STARLINK-36356,2026-054L,2026-06-01T07:11:27.812544,15.30190356,.00009623,53.1596,268.5073,99.4390,260.6719,0,U,68242,999,1179,.9732173E-3,.28567E-3,0
STARLINK-36345,2026-054M,2026-05-31T17:22:34.286880,15.34405732,.00009021,53.1594,264.0952,83.4749,276.6356,0,U,68243,999,1180,.91500595E-3,.30671E-3,0
STARLINK-36310,2026-054N,2026-05-31T18:10:21.028512,15.42179519,.0001282,53.1586,267.9375,107.3739,252.7408,0,U,68244,999,1175,.51874974E-3,.22242E-3,0
