[ {"name": "STARLINK-35854", "line1": "1 68214U 26053H   26151.64183391  .00025191  00000+0  77959-3 0  9994", "line2": "2 68214  97.2838  27.0361 0002898 101.6972 258.4596 15.33460011 12918"}, {"name": "STARLINK-36272", "line1": "1 68215U 26053J   26152.12308917  .00021736  00000+0  67343-3 0  9999", "line2": "2 68215  97.2862  27.4571 0000689  39.4572 320.6720 15.33456240 12980"}, {"name": "STARLINK-37014", "line1": "1 68216U 26053K   26152.12037586  .00021026  00000+0  65172-3 0  9991", "line2": "2 68216  97.2863  27.4635 0001388  51.4685 308.6682 15.33448475 13007"}, {"name": "STARLINK-37011", "line1": "1 68217U 26053L   26152.11765476  .00028443  00000+0  87961-3 0  9997", "line2": "2 68217  97.2860  27.4688 0000794  88.1643 271.9691 15.33460579 13005"}, {"name": "STARLINK-37108", "line1": "1 68218U 26053M   26152.31070451  .00016127  00000+0  50069-3 0  9997", "line2": "2 68218  97.2854  27.6665 0002316  92.8291 267.3217 15.33449007 13038"}, {"name": "STARLINK-37106", "line1": "1 68219U 26053N   26152.11221675  .00020674  00000+0  64077-3 0  9998", "line2": "2 68219  97.2857  27.4776 0001801  83.0210 277.1237 15.33453014 13005"}, {"name": "STARLINK-37030", "line1": "1 68220U 26053P   26152.10677719  .00030305  00000+0  93650-3 0  9994", "line2": "2 68220  97.2845  27.4814 0001289  98.5878 261.5511 15.33471344 13006"}, {"name": "STARLINK-37012", "line1": "1 68221U 26053Q   26152.10950457  .00021092  00000+0  65344-3 0  9990", "line2": "2 68221  97.2855  27.4798 0001579  90.1537 269.9887 15.33463622 13009"}, {"name": "STARLINK-37110", "line1": "1 68222U 26053R   26152.29982787  .00010535  00000+0  32828-3 0  9993", "line2": "2 68222  97.2853  27.6803 0001731  88.0483 272.0958 15.33436945 13038"}, {"name": "STARLINK-37025", "line1": "1 68223U 26053S   26152.10133827  .00018184  00000+0  56414-3 0  9992", "line2": "2 68223  97.2894  27.4930 0001101  88.5595 271.5774 15.33450302 13003"}, {"name": "STARLINK-36960", "line1": "1 68225U 26053U   26151.63911877  .00031920  00000+0  98704-3 0  9991", "line2": "2 68225  97.2850  27.0495 0001169  89.9929 270.1448 15.33439640 12913"}, {"name": "STARLINK-37038", "line1": "1 68226U 26053V   26152.09046242  .00022768  00000+0  70515-3 0  9998", "line2": "2 68226  97.2865  27.5068 0000904  89.2645 270.8701 15.33458401 12987"}, {"name": "STARLINK-37083", "line1": "1 68227U 26053W   26151.63639594  .00032089  00000+0  99211-3 0  9997", "line2": "2 68227  97.2861  27.0537 0001279  96.9729 263.1659 15.33443872 12909"}, {"name": "STARLINK-37050", "line1": "1 68228U 26053X   26151.63096200  .00023747  00000+0  73536-3 0  9992", "line2": "2 68228  97.2833  27.0585 0002844 105.9119 254.2437 15.33452285 12919"}, {"name": "STARLINK-37081", "line1": "1 68229U 26053Y   26152.10709796  .00055976  00000+0  10229-2 0  9995", "line2": "2 68229  97.2860  30.2273 0000998  81.5534 278.5830 15.49207701 13182"}, {"name": "STARLINK-37100", "line1": "1 68230U 26053Z   26152.08502817  .00022529  00000+0  69798-3 0  9993", "line2": "2 68230  97.2858  27.5146 0000795  90.1183 270.0151 15.33449988 13002"}, {"name": "STARLINK-37104", "line1": "1 68231U 26053AA  26152.08230624  .00021411  00000+0  66348-3 0  9995", "line2": "2 68231  97.2868  27.5178 0000955  53.0439 307.0891 15.33453192 13003"}, {"name": "STARLINK-37027", "line1": "1 68232U 26054A   26151.73663247  .00021236  00000+0  63761-3 0  9990", "line2": "2 68232  53.1580 264.1806 0000917  81.4943 278.6163 15.34412706 11804"}, {"name": "STARLINK-37132", "line1": "1 68233U 26054B   26151.64196428  .00083318  00000+0  14894-2 0  9994", "line2": "2 68233  53.1592 266.4915 0002166  37.1613 322.9545 15.49322515 11760"}, {"name": "STARLINK-37101", "line1": "1 68234U 26054C   26152.25002315  .01675091  00000+0  27966-1 0  9993", "line2": "2 68234  53.1592 266.3245 0001606 109.0470 116.7031 15.48194060  5903"}, {"name": "STARLINK-36963", "line1": "1 68235U 26054D   26152.25002315  .00052231  00000+0  15491-2 0  9999", "line2": "2 68235  53.1598 262.1270 0000955  77.2450  65.9151 15.34342814  5952"}, {"name": "STARLINK-37127", "line1": "1 68236U 26054E   26152.31233507  .00039256  00000+0  90684-3 0  9996", "line2": "2 68236  53.1600 265.7363 0000860  92.5917 267.5187 15.42162500 11836"}, {"name": "STARLINK-37095", "line1": "1 68237U 26054F   26152.28719150  .00015422  00000+0  46675-3 0  9996", "line2": "2 68237  53.1605 261.9309 0001223  98.5193 261.5949 15.34391355 11884"}, {"name": "STARLINK-37097", "line1": "1 68238U 26054G   26151.60685525  .00047796  00000+0  13721-2 0  9994", "line2": "2 68238  53.1597 264.7954 0001020  90.2091 269.9029 15.35406179 11785"}, {"name": "STARLINK-37096", "line1": "1 68239U 26054H   26151.61255024  .00015312  00000+0  44874-3 0  9996", "line2": "2 68239  53.1596 264.8320 0000530  98.2895 261.8168 15.35414644 11789"}, {"name": "STARLINK-37092", "line1": "1 68240U 26054J   26151.64782791  .00034804  00000+0  80502-3 0  9992", "line2": "2 68240  53.1597 268.6902 0000990  94.7252 265.3867 15.42181380 11734"}, {"name": "STARLINK-37094", "line1": "1 68241U 26054K   26152.31967466  .00022141  00000+0  75743-3 0  9994", "line2": "2 68241  53.1611 268.6235 0001312  81.2394 278.8756 15.30200497 11798"}, {"name": "STARLINK-36356", "line1": "1 68242U 26054L   26152.29962746  .00028567  00000+0  97322-3 0  9993", "line2": "2 68242  53.1596 268.5073 0000962  99.4390 260.6719 15.30190356 11797"}, {"name": "STARLINK-36345", "line1": "1 68243U 26054M   26151.72400795  .00030671  00000+0  91501-3 0  9994", "line2": "2 68243  53.1594 264.0952 0000902  83.4749 276.6356 15.34405732 11805"}, {"name": "STARLINK-36310", "line1": "1 68244U 26054N   26151.75718783  .00022242  00000+0  51875-3 0  9992", "line2": "2 68244  53.1586 267.9375 0001282 107.3739 252.7408 15.42179519 11752"}]